HORYU-4                 
1 41340U 16012D   20043.38704744  .00000436  00000-0  26287-4 0  9990
2 41340  31.0059  54.5719 0013906 337.6532  22.3497 15.01414790218911
E-ST@R-II               
1 41459U 16025D   20043.50827674  .00000484  00000-0  29180-4 0  9995
2 41459  98.0959 147.0538 0164596 275.4891  82.7590 15.06025857208482
AAUSAT 4                
1 41460U 16025E   20043.23451238  .00001935  00000-0  99460-4 0  9996
2 41460  98.0911 148.6708 0154352 266.6322  91.7281 15.08162958208616
DIWATA-1                
1 41463U 98067HT  20043.37254299  .00086911  14555-4  16644-3 0  9991
2 41463  51.6229  74.4832 0003255  34.9520  68.8711 16.00514933217712
BEESAT-4                
1 41619U 16040W   20043.41347343  .00001100  00000-0  48742-4 0  9991
2 41619  97.3375 105.8395 0009536 262.2811  97.7344 15.23677417190202
CANX-7                  
1 41788U 16059F   20043.47620528  .00007748  00000-0  11093-2 0  9994
2 41788  98.2531 128.3328 0022274 336.2571  23.7630 14.76709591181212
RAVAN                   
1 41849U 16067B   20043.27201582 -.00000366  00000-0 -25465-4 0  9995
2 41849  97.9251 151.0787 0007745 311.4855  48.5701 14.98447028177726
CELTEE 1                
1 41850U 16067C   20042.55181278  .00000153  00000-0  18494-4 0  9992
2 41850  97.9191 148.4360 0007790 315.8665  44.1934 14.97115393177518
OPTICUBE 04             
1 41851U 16067D   20043.53065263 -.00000463  00000-0 -35096-4 0  9990
2 41851  97.9192 149.1125 0007971 317.1515  42.9085 14.96883568177649
AEROCUBE 8D             
1 41852U 16067E   20043.27699130 -.00000053  00000-0  68984-6 0  9996
2 41852  97.9194 148.6848 0008736 315.6242  44.4278 14.96835951177585
AEROCUBE 8C             
1 41853U 16067F   20043.23875865  .00000763  00000-0  71968-4 0  9995
2 41853  97.9197 148.5619 0008666 318.9977  41.0592 14.96804105177575
PROMETHEUS 2-1          
1 41854U 16067G   20043.56790973  .00000879  00000-0  81489-4 0  9995
2 41854  97.9205 149.1481 0008900 315.5423  44.5083 14.97083787177636
PROMETHEUS 2-3          
1 41855U 16067H   20043.36866417  .00000881  00000-0  81652-4 0  9996
2 41855  97.9208 148.9724 0009058 316.7541  43.2968 14.97093110177602
INS-1B                  
1 41954U 17008G   20043.33332193  .00001035  00000-0  44997-4 0  9991
2 41954  97.3710 109.9113 0009865  35.0346 325.1539 15.24467101166153
BGUSAT                  
1 41999U 17008BD  20042.95452329  .00001829  00000-0  71784-4 0  9996
2 41999  97.3803 113.0088 0008993  47.3661 312.8334 15.26977146165645
DIDO-2                  
1 42000U 17008BE  20043.14405757  .00000715  00000-0  32137-4 0  9997
2 42000  97.3719 110.2655 0009732  52.6370 307.5752 15.24268101165526
PEASSS                  
1 42015U 17008BV  20043.27821916  .00000933  00000-0  39845-4 0  9991
2 42015  97.3737 111.7545 0007641  58.0758 302.1223 15.25332850166117
AL-FARABI 1             
1 42016U 17008BW  20043.49679207  .00001208  00000-0  49634-4 0  9993
2 42016  97.3762 112.8177 0007466  56.7316 303.4636 15.26095573166312
NAYIF-1 (EO-88)         
1 42017U 17008BX  20043.15091944  .00001292  00000-0  52834-4 0  9992
2 42017  97.3757 112.4883 0007515  57.6057 302.5908 15.26132702166288
NSIGHT                  
1 42726U 98067MF  20043.45966234  .00067740  00000-0  24201-3 0  9995
2 42726  51.6294 155.9735 0004270 359.6697   0.4304 15.88196534155511
UCLSAT                  
1 42765U 17036A   20043.23808508  .00001029  00000-0  46303-4 0  9996
2 42765  97.3198 100.7653 0012990 108.6373 251.6276 15.23232804146778
LITUANICASAT-2          
1 42768U 17036D   20043.25234201  .00001697  00000-0  73621-4 0  9998
2 42768  97.3245 100.5785 0016504 100.4491 259.8607 15.23586525146628
AALTO-1                 
1 42775U 17036L   20043.20111754  .00000608  00000-0  29847-4 0  9990
2 42775  97.3176  98.8906 0015590 102.1597 258.1386 15.21653595146472
URSA MAIOR              
1 42776U 17036M   20043.27051859  .00000682  00000-0  32931-4 0  9997
2 42776  97.3187  99.1907 0015404 101.8307 258.4658 15.21816315146497
COMPASS 2               
1 42777U 17036N   20043.39768051  .00001328  00000-0  58396-4 0  9991
2 42777  97.3238 101.1747 0014053 100.7941 259.4879 15.23534065146602
DIAMOND RED             
1 42783U 17036U   20043.37464114  .00000799  00000-0  37252-4 0  9998
2 42783  97.3198 100.2909 0013701 109.8850 250.3865 15.22596244146568
PEGASUS                 
1 42784U 17036V   20043.23833109  .00000920  00000-0  42062-4 0  9999
2 42784  97.3202 100.5036 0013577 109.5302 250.7402 15.22942968146568
DIAMOND GREEN           
1 42785U 17036W   20042.91340703  .00000850  00000-0  39460-4 0  9997
2 42785  97.3200  99.8730 0013593 111.8550 248.4134 15.22597300146480
DIAMOND BLUE            
1 42786U 17036X   20042.84689351  .00000840  00000-0  39023-4 0  9999
2 42786  97.3200  99.8045 0013417 112.1917 248.0744 15.22595409146555
NUDTSAT                 
1 42787U 17036Y   20043.59523084  .00001384  00000-0  59734-4 0  9998
2 42787  97.3246 101.9729 0012537 101.0129 259.2527 15.24121158146522
SUCHAI                  
1 42788U 17036Z   20043.10893727  .00001159  00000-0  51452-4 0  9999
2 42788  97.3209 100.8549 0013120 108.6583 251.6080 15.23440513146647
SKCUBE                  
1 42789U 17036AA  20043.40559194  .00001019  00000-0  45779-4 0  9990
2 42789  97.3203 101.0327 0013006 107.9299 252.3357 15.23305630146609
VZLUSAT-1               
1 42790U 17036AB  20043.58332673  .00001388  00000-0  59903-4 0  9995
2 42790  97.3224 101.9570 0012546 105.8995 254.3626 15.24111695146676
ROBUSTA-1B              
1 42792U 17036AD  20043.11201801  .00001116  00000-0  49603-4 0  9999
2 42792  97.3206 100.9596 0012578 109.2130 251.0470 15.23487570146587
CICERO 6                
1 42793U 17036AE  20043.31147992  .00000693  00000-0  32406-4 0  9994
2 42793  97.3184 100.7130 0011861 110.3589 249.8924 15.22928208146665
D-SAT                   
1 42794U 17036AF  20043.56366515  .00000186  00000-0  21255-4 0  9993
2 42794  97.5104  82.3420 0127729  65.4907 295.9568 14.91217044143939
CORVUS BC2              
1 42846U 17042X   20043.49827816  .00000312  00000-0  35983-4 0  9990
2 42846  97.5408 292.5970 0009223 347.8582  12.2414 14.92058840140624
CORVUS BC1              
1 42847U 17042Y   20043.36837868  .00000310  00000-0  35742-4 0  9996
2 42847  97.5411 292.6196 0008872 347.8804  12.2200 14.92159789140601
MIRATA                  
1 43015U 17073C   20043.54525260  .00000777  00000-0  64782-4 0  9991
2 43015  97.7228 320.5391 0255443  99.1623 263.8580 14.79397669120608
MAKERSAT 0              
1 43016U 17073D   20043.20173113  .00000495  00000-0  43184-4 0  9991
2 43016  97.7266 320.4067 0257993 101.0513 261.9829 14.79035098120546
ASTERIA                 
1 43020U 98067NH  20043.46438416  .00066788  00000-0  25125-3 0  9997
2 43020  51.6407 168.4451 0002465 336.6050  23.4842 15.87164016127533
DELLINGR (RBLE)         
1 43021U 98067NJ  20043.45931210  .00010540  00000-0  10035-3 0  9996
2 43021  51.6359 202.1757 0001484 293.0849  66.9990 15.67451598127085
AEROCUBE 7B (OCSD B)    
1 43042U 17071F   20043.47412881  .00002821  00000-0  72994-4 0  9991
2 43042  51.6385 324.3216 0003877 311.4336  48.6316 15.42679882122926
AEROCUBE 7C (OCSD C)    
1 43043U 17071G   20043.28117366  .00002776  00000-0  72042-4 0  9994
2 43043  51.6385 325.2977 0004133 315.1093  44.9558 15.42656537122860
CHEFSAT                 
1 43044U 17071H   20043.17173898  .00005979  00000-0  12676-3 0  9999
2 43044  51.6389 315.0321 0003711 317.6392  42.4308 15.46538773122990
ASGARDIA 1              
1 43049U 17071N   20043.47436913  .00002836  00000-0  73154-4 0  9995
2 43049  51.6400 323.6451 0001983 342.7162  17.3756 15.42748667122901
ISARA                   
1 43050U 17071P   20043.47034616  .00005032  00000-0  11082-3 0  9993
2 43050  51.6373 315.4381 0001732 344.6591  15.4343 15.45783581123013
PROPCUBE 2 (FAUNA)      
1 43052U 17071R   20043.49474242  .00003071  00000-0  77469-4 0  9993
2 43052  51.6390 322.3006 0001885 340.2187  19.8726 15.43130927122916
CORVUS BC3              
1 43118U 18004H   20043.49871521  .00000631  00000-0  29673-4 0  9997
2 43118  97.4589 114.7236 0011655 129.3929 230.8341 15.23171166115829
MICROMAS-2A             
1 43131U 18004W   20043.21208455  .00001604  00000-0  67432-4 0  9998
2 43131  97.4627 115.7526 0010546 129.8823 230.3343 15.24840238115850
SPACEBEE-4              
1 43139U 18004AE  20043.27939381  .00002046  00000-0  82506-4 0  9991
2 43139  97.4651 116.7180 0009925 130.9566 229.2533 15.25949809115907
SPACEBEE-3              
1 43140U 18004AF  20043.16062261  .00002739  00000-0  10704-3 0  9994
2 43140  97.4665 117.1030 0009715 130.7021 229.5063 15.26695975115920
SPACEBEE-2              
1 43141U 18004AG  20043.16339869  .00002916  00000-0  11294-3 0  9998
2 43141  97.4676 117.2896 0009693 130.2474 229.9614 15.26951216115936
SPACEBEE-1              
1 43142U 18004AH  20043.28892130  .00002869  00000-0  11018-3 0  9998
2 43142  97.4678 117.6076 0009681 129.8780 230.3311 15.27242348115956
CICERO 7                
1 43143U 18004AJ  20043.41519918  .00001435  00000-0  60507-4 0  9990
2 43143  97.4610 116.1581 0008586 136.0343 224.1579 15.24923486115904
GOMX-4B                 
1 43196U 18015E   20043.63111796  .00000379  00000-0  18468-4 0  9991
2 43196  97.4190 173.2999 0018650 182.8784 177.2345 15.24141352112734
GOMX-4A                 
1 43197U 18015F   20043.54071940  .00000887  00000-0  39071-4 0  9995
2 43197  97.4174 173.2648 0019008 183.0670 244.7635 15.24319876112733
1KUNS-PF                
1 43466U 98067NP  20043.44341631  .00047804  00000-0  25818-3 0  9998
2 43466  51.6312 192.8828 0001396 309.8944  50.1934 15.79630742100464
UBAKUSAT                
1 43467U 98067NQ  20042.94010441  .00018008  00000-0  15497-3 0  9991
2 43467  51.6336 209.8882 0001557 251.2322 108.8506 15.69388923100207
